{"type": "FeatureCollection", "features": [ {"type": "Feature", "properties": {"norad_id": 41469, "name": "IRNSS-1G", "group": "gnss", "lat": 4.72197801984169, "lon": -169.05867035183235, "alt_km": 35799.42948260364, "timestamp": "2025-12-11T22:43:47.510385+00:00", "meta": {"OBJECT_NAME": "IRNSS-1G", "OBJECT_ID": "2016-027A", "EPOCH": "2025-12-10T07:18:31.930272", "MEAN_MOTION": 1.00250551, "ECCENTRICITY": 0.00046359, "INCLINATION": 4.7271, "RA_OF_ASC_NODE": 102.1628, "ARG_OF_PERICENTER": 335.3904, "MEAN_ANOMALY": 240.5348, "EPHEMERIS_TYPE": 0, "CLASSIFICATION_TYPE": "U", "NORAD_CAT_ID": 41469, "ELEMENT_SET_NO": 999, "REV_AT_EPOCH": 3528, "BSTAR": 0, "MEAN_MOTION_DOT": -3.34e-06, "MEAN_MOTION_DDOT": 0}, "tle": {"line1": "1 41469U 16027A   25344.30453623 -.00000334  00000+0  00000+0 0  9993", "line2": "2 41469   4.7271 102.1628 0004635 335.3904 240.5348  1.00250551 35285"}}, "geometry": {"type": "Point", "coordinates": [-169.05867035183235, 4.72197801984169]}}, {"type": "Feature", "properties": {"norad_id": 41549, "name": "GSAT0211 (GALILEO 14)", "group": "gnss", "lat": 11.187776398453487, "lon": 38.939785759079676, "alt_km": 23231.43012640515, "timestamp": "2025-12-11T22:43:47.510407+00:00", "meta": {"OBJECT_NAME": "GSAT0211 (GALILEO 14)", "OBJECT_ID": "2016-030A", "EPOCH": "2025-12-11T02:09:03.353760", "MEAN_MOTION": 1.70473055, "ECCENTRICITY": 0.00041282, "INCLINATION": 55.1527, "RA_OF_ASC_NODE": 226.8689, "ARG_OF_PERICENTER": 18.4657, "MEAN_ANOMALY": 341.6286, "EPHEMERIS_TYPE": 0, "CLASSIFICATION_TYPE": "U", "NORAD_CAT_ID": 41549, "ELEMENT_SET_NO": 999, "REV_AT_EPOCH": 5946, "BSTAR": 0, "MEAN_MOTION_DOT": 9e-08, "MEAN_MOTION_DDOT": 0}, "tle": {"line1": "1 41549U 16030A   25345.08962215  .00000009  00000+0  00000+0 0  9992", "line2": "2 41549  55.1527 226.8689 0004128  18.4657 341.6286  1.70473055 59463"}}, "geometry": {"type": "Point", "coordinates": [38.939785759079676, 11.187776398453487]}}, {"type": "Feature", "properties": {"norad_id": 41550, "name": "GSAT0210 (GALILEO 13)", "group": "gnss", "lat": 6.783104472430422, "lon": -128.3999346845046, "alt_km": 23223.67892969098, "timestamp": "2025-12-11T22:43:47.510425+00:00", "meta": {"OBJECT_NAME": "GSAT0210 (GALILEO 13)", "OBJECT_ID": "2016-030B", "EPOCH": "2025-12-11T08:19:41.751264", "MEAN_MOTION": 1.70473653, "ECCENTRICITY": 0.00011945, "INCLINATION": 55.152, "RA_OF_ASC_NODE": 226.8599, "ARG_OF_PERICENTER": 242.2312, "MEAN_ANOMALY": 117.8354, "EPHEMERIS_TYPE": 0, "CLASSIFICATION_TYPE": "U", "NORAD_CAT_ID": 41550, "ELEMENT_SET_NO": 999, "REV_AT_EPOCH": 5946, "BSTAR": 0, "MEAN_MOTION_DOT": 1e-07, "MEAN_MOTION_DDOT": 0}, "tle": {"line1": "1 41550U 16030B   25345.34701101  .00000010  00000+0  00000+0 0  9990", "line2": "2 41550  55.1520 226.8599 0001194 242.2312 117.8354  1.70473653 59466"}}, "geometry": {"type": "Point", "coordinates": [-128.3999346845046, 6.783104472430422]}}, {"type": "Feature", "properties": {"norad_id": 41586, "name": "BEIDOU-2 G7 (C03)", "group": "gnss", "lat": 1.6951243500496314, "lon": 172.33564104317242, "alt_km": 35791.86518823219, "timestamp": "2025-12-11T22:43:47.510443+00:00", "meta": {"OBJECT_NAME": "BEIDOU-2 G7 (C03)", "OBJECT_ID": "2016-037A", "EPOCH": "2025-12-11T16:01:04.306080", "MEAN_MOTION": 1.00267643, "ECCENTRICITY": 0.00044378, "INCLINATION": 1.7549, "RA_OF_ASC_NODE": 67.7499, "ARG_OF_PERICENTER": 359.661, "MEAN_ANOMALY": 3.9199, "EPHEMERIS_TYPE": 0, "CLASSIFICATION_TYPE": "U", "NORAD_CAT_ID": 41586, "ELEMENT_SET_NO": 999, "REV_AT_EPOCH": 501, "BSTAR": 0, "MEAN_MOTION_DOT": -3.45e-06, "MEAN_MOTION_DDOT": 0}, "tle": {"line1": "1 41586U 16037A   25345.66741095 -.00000345  00000+0  00000+0 0  9999", "line2": "2 41586   1.7549  67.7499 0004437 359.6610   3.9199  1.00267643  5018"}}, "geometry": {"type": "Point", "coordinates": [172.33564104317242, 1.6951243500496314]}}, {"type": "Feature", "properties": {"norad_id": 41589, "name": "EUTELSAT 117 WEST B (WAAS/PRN 131)", "group": "gnss", "lat": 0.015829489193481004, "lon": -55.15130116972441, "alt_km": 35787.92892939047, "timestamp": "2025-12-11T22:43:47.510464+00:00", "meta": {"OBJECT_NAME": "EUTELSAT 117 WEST B (WAAS/PRN 131)", "OBJECT_ID": "2016-038B", "EPOCH": "2025-12-10T23:15:27.743040", "MEAN_MOTION": 1.00269754, "ECCENTRICITY": 3.232e-05, "INCLINATION": 0.0411, "RA_OF_ASC_NODE": 158.7318, "ARG_OF_PERICENTER": 311.552, "MEAN_ANOMALY": 201.5309, "EPHEMERIS_TYPE": 0, "CLASSIFICATION_TYPE": "U", "NORAD_CAT_ID": 41589, "ELEMENT_SET_NO": 999, "REV_AT_EPOCH": 3477, "BSTAR": 0, "MEAN_MOTION_DOT": -6e-08, "MEAN_MOTION_DDOT": 0}, "tle": {"line1": "1 41589U 16038B   25344.96907110 -.00000006  00000+0  00000+0 0  9991", "line2": "2 41589   0.0411 158.7318 0000323 311.5520 201.5309  1.00269754 34778"}}, "geometry": {"type": "Point", "coordinates": [-55.15130116972441, 0.015829489193481004]}}, {"type": "Feature", "properties": {"norad_id": 41859, "name": "GSAT0207 (GALILEO 15)", "group": "gnss", "lat": -14.323749517837644, "lon": -63.588895061200915, "alt_km": 23228.086223167084, "timestamp": "2025-12-11T22:43:47.510484+00:00", "meta": {"OBJECT_NAME": "GSAT0207 (GALILEO 15)", "OBJECT_ID": "2016-069A", "EPOCH": "2025-12-09T20:46:23.344608", "MEAN_MOTION": 1.70474355, "ECCENTRICITY": 0.00021941, "INCLINATION": 55.3802, "RA_OF_ASC_NODE": 106.3298, "ARG_OF_PERICENTER": 323.9491, "MEAN_ANOMALY": 36.0038, "EPHEMERIS_TYPE": 0, "CLASSIFICATION_TYPE": "U", "NORAD_CAT_ID": 41859, "ELEMENT_SET_NO": 999, "REV_AT_EPOCH": 5617, "BSTAR": 0, "MEAN_MOTION_DOT": 1.1e-07, "MEAN_MOTION_DDOT": 0}, "tle": {"line1": "1 41859U 16069A   25343.86554797  .00000011  00000+0  00000+0 0  9997", "line2": "2 41859  55.3802 106.3298 0002194 323.9491  36.0038  1.70474355 56173"}}, "geometry": {"type": "Point", "coordinates": [-63.588895061200915, -14.323749517837644]}}, {"type": "Feature", "properties": {"norad_id": 41860, "name": "GSAT0212 (GALILEO 16)", "group": "gnss", "lat": -51.79309398950445, "lon": 44.98935874507337, "alt_km": 23229.228433350403, "timestamp": "2025-12-11T22:43:47.510502+00:00", "meta": {"OBJECT_NAME": "GSAT0212 (GALILEO 16)", "OBJECT_ID": "2016-069B", "EPOCH": "2025-12-09T03:10:58.927872", "MEAN_MOTION": 1.70474546, "ECCENTRICITY": 0.00021877, "INCLINATION": 55.3778, "RA_OF_ASC_NODE": 106.3455, "ARG_OF_PERICENTER": 30.0277, "MEAN_ANOMALY": 329.9496, "EPHEMERIS_TYPE": 0, "CLASSIFICATION_TYPE": "U", "NORAD_CAT_ID": 41860, "ELEMENT_SET_NO": 999, "REV_AT_EPOCH": 5641, "BSTAR": 0, "MEAN_MOTION_DOT": 1e-07, "MEAN_MOTION_DDOT": 0}, "tle": {"line1": "1 41860U 16069B   25343.13262648  .00000010  00000+0  00000+0 0  9999", "line2": "2 41860  55.3778 106.3455 0002187  30.0277 329.9496  1.70474546 56413"}}, "geometry": {"type": "Point", "coordinates": [44.98935874507337, -51.79309398950445]}}, {"type": "Feature", "properties": {"norad_id": 41861, "name": "GSAT0213 (GALILEO 17)", "group": "gnss", "lat": 46.4492517668844, "lon": 152.81382916580824, "alt_km": 23221.56165780926, "timestamp": "2025-12-11T22:43:47.510519+00:00", "meta": {"OBJECT_NAME": "GSAT0213 (GALILEO 17)", "OBJECT_ID": "2016-069C", "EPOCH": "2025-12-08T21:55:35.814144", "MEAN_MOTION": 1.70474823, "ECCENTRICITY": 0.00022753, "INCLINATION": 55.38, "RA_OF_ASC_NODE": 106.3592, "ARG_OF_PERICENTER": 283.5203, "MEAN_ANOMALY": 76.4183, "EPHEMERIS_TYPE": 0, "CLASSIFICATION_TYPE": "U", "NORAD_CAT_ID": 41861, "ELEMENT_SET_NO": 999, "REV_AT_EPOCH": 5627, "BSTAR": 0, "MEAN_MOTION_DOT": 1e-07, "MEAN_MOTION_DDOT": 0}, "tle": {"line1": "1 41861U 16069C   25342.91360896  .00000010  00000+0  00000+0 0  9999", "line2": "2 41861  55.3800 106.3592 0002275 283.5203  76.4183  1.70474823 56273"}}, "geometry": {"type": "Point", "coordinates": [152.81382916580824, 46.4492517668844]}}, {"type": "Feature", "properties": {"norad_id": 41862, "name": "GSAT0214 (GALILEO 18)", "group": "gnss", "lat": -22.646563861965607, "lon": 89.521438948475, "alt_km": 23222.183162349367, "timestamp": "2025-12-11T22:43:47.510537+00:00", "meta": {"OBJECT_NAME": "GSAT0214 (GALILEO 18)", "OBJECT_ID": "2016-069D", "EPOCH": "2025-12-10T19:39:52.929504", "MEAN_MOTION": 1.70474684, "ECCENTRICITY": 0.00013288, "INCLINATION": 55.3792, "RA_OF_ASC_NODE": 106.2992, "ARG_OF_PERICENTER": 290.9764, "MEAN_ANOMALY": 68.9794, "EPHEMERIS_TYPE": 0, "CLASSIFICATION_TYPE": "U", "NORAD_CAT_ID": 41862, "ELEMENT_SET_NO": 999, "REV_AT_EPOCH": 5643, "BSTAR": 0, "MEAN_MOTION_DOT": 1e-07, "MEAN_MOTION_DDOT": 0}, "tle": {"line1": "1 41862U 16069D   25344.81936261  .00000010  00000+0  00000+0 0  9996", "line2": "2 41862  55.3792 106.2992 0001328 290.9764  68.9794  1.70474684 56436"}}, "geometry": {"type": "Point", "coordinates": [89.521438948475, -22.646563861965607]}}, {"type": "Feature", "properties": {"norad_id": 42709, "name": "SES-15 (WAAS/PRN 133)", "group": "gnss", "lat": -0.02743160107650728, "lon": -67.31878141523136, "alt_km": 35785.77511556041, "timestamp": "2025-12-11T22:43:47.510555+00:00", "meta": {"OBJECT_NAME": "SES-15 (WAAS/PRN 133)", "OBJECT_ID": "2017-026A", "EPOCH": "2025-12-10T23:12:05.566176", "MEAN_MOTION": 1.00271075, "ECCENTRICITY": 7.736e-05, "INCLINATION": 0.0183, "RA_OF_ASC_NODE": 344.9808, "ARG_OF_PERICENTER": 225.0397, "MEAN_ANOMALY": 88.7675, "EPHEMERIS_TYPE": 0, "CLASSIFICATION_TYPE": "U", "NORAD_CAT_ID": 42709, "ELEMENT_SET_NO": 999, "REV_AT_EPOCH": 554, "BSTAR": 0, "MEAN_MOTION_DOT": 6.5e-07, "MEAN_MOTION_DDOT": 0}, "tle": {"line1": "1 42709U 17026A   25344.96673109  .00000065  00000+0  00000+0 0  9996", "line2": "2 42709   0.0183 344.9808 0000773 225.0397  88.7675  1.00271075  5545"}}, "geometry": {"type": "Point", "coordinates": [-67.31878141523136, -0.02743160107650728]}}]}